STARLINK-3626           
1 51792U 22017AA  24081.85722611 -.00002808  00000+0 -15840-3 0  9993
2 51792  53.2171 331.5960 0001552  83.0464 277.0705 15.08832818115605
STARLINK-3633           
1 51793U 22017AB  24081.01178647 -.00000743  00000+0 -28609-4 0  9990
2 51793  53.2181 335.3966 0001338 112.4803 247.6331 15.08833376115474
STARLINK-3573           
1 51794U 22017AC  24081.84986356 -.00001599  00000+0 -82409-4 0  9994
2 51794  53.2169 331.6278 0001394 104.8775 255.2371 15.08844560115556
STARLINK-3586           
1 51795U 22017AD  24081.40829020  .00002050  00000+0  14688-3 0  9995
2 51795  53.2186 333.8022 0001438  91.5443 268.5714 15.08837910115481
STARLINK-3630           
1 51796U 22017AE  24081.43129398 -.00000055  00000+0  14656-4 0  9990
2 51796  53.2174 333.3988 0001473 111.8906 248.2242 15.08834180115481
STARLINK-3627           
1 51797U 22017AF  24081.85252333  .00007853  00000+0  20335-3 0  9995
2 51797  53.1556 285.2844 0004705 187.0829 173.0111 15.40035810116245
STARLINK-3634           
1 51798U 22017AG  24081.43770134  .00001072  00000+0  85383-4 0  9996
2 51798  53.2204 333.4782 0001508 102.7770 257.3391 15.08855616115536
STARLINK-3637           
1 51799U 22017AH  24081.84618863 -.00002201  00000+0 -12023-3 0  9999
2 51799  53.2177 331.6479 0001288  54.0061 306.1051 15.08849728115551
STARLINK-3592           
1 51801U 22017AK  24080.98138939  .00001213  00000+0  94279-4 0  9992
2 51801  53.2177 335.5239 0001349 107.5022 252.6118 15.08841218115422
STARLINK-3557           
1 51802U 22017AL  24081.86091273 -.00001553  00000+0 -79524-4 0  9995
2 51802  53.2181 331.5704 0001175 103.2175 256.8948 15.08836774115552
STARLINK-3544           
1 51803U 22017AM  24081.43403049  .00000319  00000+0  38130-4 0  9992
2 51803  53.2190 333.4954 0001319 105.7626 254.3512 15.08841040115483
STARLINK-3601           
1 51804U 22017AN  24081.84434828  .00009368  00000+0  60567-3 0  9998
2 51804  53.2169 311.6518 0001227  89.9452 270.1681 15.08854424115889
STARLINK-3605           
1 51805U 22017AP  24081.84804505  .00015444  00000+0  98576-3 0  9995
2 51805  53.2168 311.7042 0001583 142.1015 218.0088 15.08859614115871
STARLINK-3581           
1 51806U 22017AQ  24081.58334491  .01083057  00000+0  74379-2 0  9999
2 51806  53.2171 315.3202 0000946 118.8809  82.3761 15.71854526  5917
STARLINK-3606           
1 51807U 22017AR  24081.86183063  .00005305  00000+0  35096-3 0  9991
2 51807  53.2164 321.5787 0001799  79.4672 280.6522 15.08859974115747
STARLINK-3609           
1 51808U 22017AS  24081.38343061  .00000341  00000+0  39537-4 0  9995
2 51808  53.2174 323.7231 0001167  93.5683 266.5443 15.08837447115527
STARLINK-3607           
1 51809U 22017AT  24081.92070157 -.00002525  00000+0 -14062-3 0  9992
2 51809  53.2192 321.2705 0001650  97.2777 262.8403 15.08832770115708
STARLINK-3613           
1 51810U 22017AU  24081.36229580 -.00000328  00000+0 -25091-5 0  9993
2 51810  53.2172 314.0373 0001084  85.9074 274.2042 15.08841170115636
STARLINK-3569           
1 51811U 22017AV  24081.85078705  .00004298  00000+0  28789-3 0  9992
2 51811  53.2163 321.6247 0001037  80.2451 279.8658 15.08847929115694
STARLINK-3610           
1 51812U 22017AW  24081.85906661  .00003711  00000+0  25103-3 0  9990
2 51812  53.2178 311.5918 0001109  98.3589 261.7529 15.08853192115838
STARLINK-3552           
1 51813U 22017AX  24081.37699091 -.00000331  00000+0 -27038-5 0  9992
2 51813  53.2194 313.7799 0001234  97.0262 263.0871 15.08843358115648
STARLINK-3599           
1 51814U 22017AY  24081.85170672 -.00002556  00000+0 -14249-3 0  9994
2 51814  53.2185 311.6183 0001258 105.9564 254.1567 15.08852837115839
STARLINK-3604           
1 51815U 22017AZ  24081.85538890  .00007911  00000+0  51437-3 0  9993
2 51815  53.2170 311.6050 0001297  75.2544 284.8592 15.08852506115838
STARLINK-3603           
1 51816U 22017BA  24081.87109446  .00000565  00000+0  53585-4 0  9992
2 51816  53.2162 311.7759 0001164  99.4115 260.7009 15.08841429115885
STARLINK-3542           
1 51852U 22022A   24081.47911039  .00004672  00000+0  31132-3 0  9999
2 51852  53.2183   3.2874 0001111  71.3157 288.7955 15.08849201114588
STARLINK-3539           
1 51853U 22022B   24081.51218159  .00000585  00000+0  54859-4 0  9999
2 51853  53.2197   2.7586 0001399  98.0164 262.0987 15.08842695114546
STARLINK-3541           
1 51854U 22022C   24081.87288631 -.00000307  00000+0 -11916-5 0  9993
2 51854  53.2182   1.5257 0001570  79.7351 280.3818 15.08823785114655
STARLINK-3545           
1 51855U 22022D   24081.79189725 -.00000508  00000+0 -13822-4 0  9999
2 51855  53.2184   1.8117 0001289  80.0853 280.0285 15.08845799114592
STARLINK-3568           
1 51856U 22022E   24081.47270108  .00001029  00000+0  82748-4 0  9991
2 51856  53.2197   3.3289 0001355  99.7236 260.3909 15.08844962114629
STARLINK-3571           
1 51857U 22022F   24081.06422789 -.00002444  00000+0 -13556-3 0  9995
2 51857  53.2177   5.1626 0001197  98.8813 261.2314 15.08830238114539
STARLINK-3563           
1 51858U 22022G   24081.79559026  .00001708  00000+0  12536-3 0  9998
2 51858  53.2181   1.8710 0001449 113.7357 246.3787 15.08841828114649
STARLINK-3560           
1 51859U 22022H   24081.48098212  .00005055  00000+0  33540-3 0  9997
2 51859  53.2176 353.2888 0000906 119.8834 240.2248 15.08849037114733
STARLINK-3559           
1 51860U 22022J   24081.88482752  .00002204  00000+0  15647-3 0  9990
2 51860  53.2173 351.4739 0001638 113.1485 246.9680 15.08850664114752
STARLINK-3562           
1 51861U 22022K   24081.14147165 -.00001348  00000+0 -66622-4 0  9996
2 51861  53.2184 354.8064 0001091  84.7543 275.3573 15.08835783114554
STARLINK-3508           
1 51862U 22022L   24081.48370641 -.00001173  00000+0 -55622-4 0  9995
2 51862  53.2178 353.2700 0001085 103.8939 256.2174 15.08841829114747
STARLINK-3555           
1 51863U 22022M   24081.46532292 -.00002140  00000+0 -11644-3 0  9996
2 51863  53.2168 353.3572 0000996 126.5750 233.5334 15.08830360114685
STARLINK-3548           
1 51864U 22022N   24081.46898338 -.00002585  00000+0 -14442-3 0  9995
2 51864  53.2179 353.2591 0001208  98.5790 261.5339 15.08828305114735
STARLINK-3503           
1 51865U 22022P   24081.45795257 -.00002076  00000+0 -11241-3 0  9990
2 51865  53.2187 353.3883 0001251  91.1935 268.9201 15.08828159114688
STARLINK-3553           
1 51866U 22022Q   24081.78641004 -.00001375  00000+0 -68290-4 0  9995
2 51866  53.2193 351.7693 0001745 112.2178 247.8999 15.08832541114735
STARLINK-3590           
1 51867U 22022R   24081.71923093 -.00001428  00000+0 -71680-4 0  9996
2 51867  53.2184 352.2179 0000739 103.7498 256.3577 15.08828728114721
STARLINK-3578           
1 51868U 22022S   24081.72659020 -.00001689  00000+0 -88051-4 0  9993
2 51868  53.2198 352.1843 0001449 101.2101 258.9054 15.08829595114728
STARLINK-3588           
1 51869U 22022T   24081.90690067  .00002121  00000+0  15127-3 0  9993
2 51869  53.2199 351.3773 0001599 104.5817 255.5353 15.08856097114754
STARLINK-3591           
1 51870U 22022U   24081.45059175 -.00001111  00000+0 -51709-4 0  9991
2 51870  53.2206 353.4178 0001321  86.1834 273.9309 15.08837805114733
STARLINK-3567           
1 51871U 22022V   24081.04210920 -.00000402  00000+0 -71954-5 0  9991
2 51871  53.2193 355.2492 0001404 120.8417 239.2713 15.08846282114736
STARLINK-3554           
1 51872U 22022W   24081.44690687 -.00001361  00000+0 -67406-4 0  9999
2 51872  53.2187 353.4375 0001168 114.2118 245.8996 15.08848092114683
STARLINK-3582           
1 51873U 22022X   24081.03202460 -.00000399  00000+0 -69500-5 0  9991
2 51873  53.2183 355.3105 0001445 105.8553 254.2598 15.08840409114629
STARLINK-3574           
1 51874U 22022Y   24081.89954383  .00000475  00000+0  47897-4 0  9991
2 51874  53.2180 351.4087 0001276 106.6394 253.4739 15.08846961114747
STARLINK-3585           
1 51875U 22022Z   24081.48002084  .00006099  00000+0  40102-3 0  9998
2 51875  53.2174 353.1987 0001338  99.2401 260.8743 15.08834525114698
STARLINK-3583           
1 51876U 22022AA  24081.03474921  .00004341  00000+0  29076-3 0  9998
2 51876  53.2185 355.2893 0001422  94.3879 265.7275 15.08829763114624
STARLINK-3556           
1 51877U 22022AB  24081.41470301  .00001194  00000+0  93115-4 0  9998
2 51877  53.2190 343.5778 0001371  92.7041 267.4108 15.08835164114816
STARLINK-3575           
1 51878U 22022AC  24081.49106553  .00000001  00000+0  18165-4 0  9990
2 51878  53.2187 353.2376 0001330  97.9469 262.1675 15.08841012114697
STARLINK-3572           
1 51879U 22022AD  24081.14238850 -.00001305  00000+0 -63900-4 0  9996
2 51879  53.2178 344.8022 0001441 132.9065 227.2048 15.08836190114773
STARLINK-3566           
1 51880U 22022AE  24081.89215204  .00002860  00000+0  19768-3 0  9995
2 51880  53.2178 351.1650 0001280  73.1206 286.9926 15.08844085114754
STARLINK-3504           
1 51881U 22022AF  24081.46622703  .00000096  00000+0  24151-4 0  9997
2 51881  53.2193 343.3440 0001422  96.1641 263.9514 15.08845779114870
STARLINK-3570           
1 51882U 22022AG  24081.87566958 -.00000672  00000+0 -24134-4 0  9995
2 51882  53.2185 341.5249 0001096  94.8170 265.2947 15.08838249114934
STARLINK-3576           
1 51883U 22022AH  24081.14609025 -.00002215  00000+0 -12116-3 0  9990
2 51883  53.2186 344.9720 0001487 111.6954 248.4196 15.08833219114761
STARLINK-3577           
1 51884U 22022AJ  24081.86735227 -.00001484  00000+0 -75203-4 0  9998
2 51884  53.2163 341.5477 0001105  77.8545 282.2571 15.08835181114960
STARLINK-3584           
1 51885U 22022AK  24081.45518811 -.00001365  00000+0 -67679-4 0  9998
2 51885  53.2184 343.4002 0001386  99.0217 261.0932 15.08836511114810
STARLINK-3565           
1 51886U 22022AL  24081.46255055 -.00000577  00000+0 -18186-4 0  9991
2 51886  53.2184 343.3684 0001210  98.2361 261.8768 15.08838759114825
